[{"OBJECT_NAME":"STARLINK-33722","OBJECT_ID":"2025-076C","EPOCH":"2026-03-09T01:08:39.464736","MEAN_MOTION":15.27591049,"ECCENTRICITY":0.00022764,"INCLINATION":43.003,"RA_OF_ASC_NODE":325.2036,"ARG_OF_PERICENTER":245.0339,"MEAN_ANOMALY":115.0277,"EPHEMERIS_TYPE":0,"CLASSIFICATION_TYPE":"U","NORAD_CAT_ID":63571,"ELEMENT_SET_NO":999,"REV_AT_EPOCH":5172,"BSTAR":0.0010314293,"MEAN_MOTION_DOT":0.0002824,"MEAN_MOTION_DDOT":0},{"OBJECT_NAME":"239ALFEROV (RS61S)","OBJECT_ID":"2025-155F","EPOCH":"2026-03-09T21:46:33.382848","MEAN_MOTION":15.29933217,"ECCENTRICITY":0.00084878,"INCLINATION":97.4469,"RA_OF_ASC_NODE":37.6373,"ARG_OF_PERICENTER":151.5904,"MEAN_ANOMALY":208.58,"EPHEMERIS_TYPE":0,"CLASSIFICATION_TYPE":"U","NORAD_CAT_ID":64881,"ELEMENT_SET_NO":999,"REV_AT_EPOCH":6561,"BSTAR":0.00067233359,"MEAN_MOTION_DOT":0.00019457,"MEAN_MOTION_DDOT":0}]
